NORAD_CAT_ID,OBJECT_NAME,OBJECT_TYPE,EPOCH,MEAN_MOTION,ECCENTRICITY,INCLINATION,RA_OF_ASC_NODE,ARG_OF_PERICENTER,MEAN_ANOMALY,BSTAR,MEAN_MOTION_DOT,MEAN_MOTION_DDOT,TLE_LINE0,TLE_LINE1,TLE_LINE2,SEMIMAJOR_AXIS,PERIOD,APOGEE,PERIGEE,DECAYED
53896.0,STARLINK-5037,PAYLOAD,2024-05-24 22:40:42,15.08848855,0.0001113,53.217,18.7343,108.6171,251.4942,0.00014056,1.95e-05,0.0,0 STARLINK-5037,1 53896U 22119L   24145.94493978  .00001950  00000-0  14056-3 0  9999,2 53896  53.2170  18.7343 0001113 108.6171 251.4942 15.08848855 92995,6917.853,95.437,540.488,538.948,0.0
53896.0,STARLINK-5037,PAYLOAD,2024-05-25 08:13:01,15.08844392,0.0001118,53.2165,16.9516,98.8188,261.2931,5.1843e-05,5.37e-06,0.0,0 STARLINK-5037,1 53896U 22119L   24146.34237952  .00000537  00000-0  51843-4 0  9998,2 53896  53.2165  16.9516 0001118  98.8188 261.2931 15.08844392 93051,6917.867,95.437,540.505,538.959,0.0
53896.0,STARLINK-5037,PAYLOAD,2024-05-25 20:56:07,15.08832827,0.0001659,53.2194,14.5816,126.8615,233.253,-0.00015228,-2.71e-05,0.0,0 STARLINK-5037,1 53896U 22119L   24146.87231010 -.00002710  00000-0 -15228-3 0  9998,2 53896  53.2194  14.5816 0001659 126.8615 233.2530 15.08832827 92713,6917.902,95.438,540.915,538.62,0.0
53896.0,STARLINK-5037,PAYLOAD,2024-05-26 14:25:21,15.08842236,0.0001528,53.2167,11.3062,65.877,294.2381,0.00026169,3.88e-05,0.0,0 STARLINK-5037,1 53896U 22119L   24147.60094768  .00003880  00000-0  26169-3 0  9990,2 53896  53.2167  11.3062 0001528  65.8770 294.2381 15.08842236 93245,6917.874,95.437,540.796,538.682,0.0
53896.0,STARLINK-5037,PAYLOAD,2024-05-26 20:46:54,15.08841656,8.22e-05,53.217,10.1118,72.7009,287.4073,0.00017921,2.566e-05,0.0,0 STARLINK-5037,1 53896U 22119L   24147.86590674  .00002566  00000-0  17921-3 0  9991,2 53896  53.2170  10.1118 0000822  72.7009 287.4073 15.08841656 92860,6917.875,95.437,540.309,539.172,0.0
53896.0,STARLINK-5037,PAYLOAD,2024-05-26 22:22:17,15.08851525,7.34e-05,53.2169,9.82,106.0673,254.04,0.00031298,4.698e-05,0.0,0 STARLINK-5037,1 53896U 22119L   24147.93214346  .00004698  00000-0  31298-3 0  9999,2 53896  53.2169   9.8200 0000734 106.0673 254.0400 15.08851525 93293,6917.845,95.437,540.218,539.202,0.0
53896.0,STARLINK-5037,PAYLOAD,2024-05-26 23:57:40,15.088522,9.58e-05,53.2174,9.5127,103.408,256.7019,0.00038399,5.831e-05,0.0,0 STARLINK-5037,1 53896U 22119L   24147.99838326  .00005831  00000-0  38399-3 0  9994,2 53896  53.2174   9.5127 0000958 103.4080 256.7019 15.08852200 92885,6917.843,95.437,540.371,539.045,0.0
53896.0,STARLINK-5037,PAYLOAD,2024-05-27 07:54:37,15.08826378,0.0001453,53.2177,8.0318,113.3957,246.7188,0.00060928,9.418e-05,0.0,0 STARLINK-5037,1 53896U 22119L   24148.32960006  .00009418  00000-0  60928-3 0  9991,2 53896  53.2177   8.0318 0001453 113.3957 246.7188 15.08826378 92937,6917.922,95.438,540.792,538.782,0.0
53896.0,STARLINK-5037,PAYLOAD,2024-05-27 14:16:08,15.0884325,7.81e-05,53.2178,6.8385,87.0425,273.0656,0.0002011,2.915e-05,0.0,0 STARLINK-5037,1 53896U 22119L   24148.59454748  .00002915  00000-0  20110-3 0  9995,2 53896  53.2178   6.8385 0000781  87.0425 273.0656 15.08843250 93390,6917.87,95.437,540.276,539.195,0.0
53896.0,STARLINK-5037,PAYLOAD,2024-05-27 20:37:41,15.08842031,0.0001139,53.218,5.6493,107.2101,252.9016,0.00014695,2.052e-05,0.0,0 STARLINK-5037,1 53896U 22119L   24148.85950765  .00002052  00000-0  14695-3 0  9997,2 53896  53.2180   5.6493 0001139 107.2101 252.9016 15.08842031 93015,6917.874,95.437,540.527,538.951,0.0
53896.0,STARLINK-5037,PAYLOAD,2024-05-27 22:13:04,15.08845117,0.0001016,53.2178,5.3514,88.847,271.2638,0.00021366,3.115e-05,0.0,0 STARLINK-5037,1 53896U 22119L   24148.92574720  .00003115  00000-0  21366-3 0  9992,2 53896  53.2178   5.3514 0001016  88.8470 271.2638 15.08845117 93449,6917.865,95.437,540.433,539.027,0.0
53896.0,STARLINK-5037,PAYLOAD,2024-05-28 07:45:22,15.08855832,0.0001092,53.2178,3.5678,71.7246,288.3865,0.00034594,5.224e-05,0.0,0 STARLINK-5037,1 53896U 22119L   24149.32318235  .00005224  00000-0  34594-3 0  9994,2 53896  53.2178   3.5678 0001092  71.7246 288.3865 15.08855832 93082,6917.832,95.437,540.452,538.942,0.0
53896.0,STARLINK-5037,PAYLOAD,2024-05-28 20:28:28,15.08845506,0.0001035,53.2173,1.187,85.3355,274.7755,8.0129e-05,9.88e-06,0.0,0 STARLINK-5037,1 53896U 22119L   24149.85310526  .00000988  00000-0  80129-4 0  9995,2 53896  53.2173   1.1870 0001035  85.3355 274.7755 15.08845506 93167,6917.864,95.437,540.445,539.013,0.0
53896.0,STARLINK-5037,PAYLOAD,2024-05-29 10:46:56,15.08839075,0.0001274,53.2178,358.509,116.6737,243.4385,7.8778e-05,9.66e-06,0.0,0 STARLINK-5037,1 53896U 22119L   24150.44926706  .00000966  00000-0  78778-4 0  9998,2 53896  53.2178 358.5090 0001274 116.6737 243.4385 15.08839075 93258,6917.883,95.438,540.63,538.867,0.0
53896.0,STARLINK-5037,PAYLOAD,2024-05-29 20:19:15,15.08844089,9.14e-05,53.2174,356.7217,94.7609,265.3487,3.8015e-05,3.17e-06,0.0,0 STARLINK-5037,1 53896U 22119L   24150.84670656  .00000317  00000-0  38015-4 0  9992,2 53896  53.2174 356.7217 0000914  94.7609 265.3487 15.08844089 93739,6917.868,95.437,540.365,539.101,0.0
53896.0,STARLINK-5037,PAYLOAD,2024-05-29 23:30:01,15.0884268,9.89e-05,53.2175,356.1286,90.2011,269.9094,3.9185e-05,3.36e-06,0.0,0 STARLINK-5037,1 53896U 22119L   24150.97918757  .00000336  00000-0  39185-4 0  9993,2 53896  53.2175 356.1286 0000989  90.2011 269.9094 15.08842680 93751,6917.872,95.437,540.421,539.053,0.0
53896.0,STARLINK-5037,PAYLOAD,2024-05-30 20:10:02,15.08852231,0.0001291,53.2186,352.2638,113.0497,247.0632,0.00026655,3.958e-05,0.0,0 STARLINK-5037,1 53896U 22119L   24151.84030120  .00003958  00000-0  26655-3 0  9999,2 53896  53.2186 352.2638 0001291 113.0497 247.0632 15.08852231 93466,6917.843,95.437,540.601,538.815,0.0
53896.0,STARLINK-5037,PAYLOAD,2024-05-31 13:39:16,15.08843853,0.0001289,53.2186,348.9953,107.4516,252.6617,0.00014276,1.985e-05,0.0,0 STARLINK-5037,1 53896U 22119L   24152.56894427  .00001985  00000-0  14276-3 0  9991,2 53896  53.2186 348.9953 0001289 107.4516 252.6617 15.08843853 93997,6917.869,95.437,540.625,538.842,0.0
53896.0,STARLINK-5037,PAYLOAD,2024-05-31 20:00:49,15.08848408,0.0001073,53.2184,347.806,90.2777,269.8338,0.00019011,2.74e-05,0.0,0 STARLINK-5037,1 53896U 22119L   24152.83390173  .00002740  00000-0  19011-3 0  9992,2 53896  53.2184 347.8060 0001073  90.2777 269.8338 15.08848408 93611,6917.855,95.437,540.462,538.977,0.0
53896.0,STARLINK-5037,PAYLOAD,2024-06-01 13:30:04,15.08840307,0.0001839,53.2174,344.5368,83.7782,276.342,8.3953e-06,-1.55e-06,0.0,0 STARLINK-5037,1 53896U 22119L   24153.56254654 -.00000155  00000-0  83953-5 0  9993,2 53896  53.2174 344.5368 0001839  83.7782 276.3420 15.08840307 93725,6917.879,95.438,541.017,538.472,0.0
53896.0,STARLINK-5037,PAYLOAD,2024-06-02 05:23:55,15.0883709,0.000119,53.2175,341.5642,89.0748,271.0381,9.9826e-06,-1.29e-06,0.0,0 STARLINK-5037,1 53896U 22119L   24154.22494874 -.00000129  00000-0  99826-5 0  9994,2 53896  53.2175 341.5642 0001190  89.0748 271.0381 15.08837090 94240,6917.889,95.438,540.578,538.931,0.0
53896.0,STARLINK-5037,PAYLOAD,2024-06-02 21:17:46,15.08840669,0.0001151,53.2184,338.5899,87.3918,272.7206,8.6425e-05,1.088e-05,0.0,0 STARLINK-5037,1 53896U 22119L   24154.88734947  .00001088  00000-0  86425-4 0  9998,2 53896  53.2184 338.5899 0001151  87.3918 272.7206 15.08840669 94348,6917.878,95.438,540.54,538.947,0.0
53896.0,STARLINK-5037,PAYLOAD,2024-06-03 05:14:42,15.08841901,0.000114,53.2181,337.1034,91.2365,268.8757,8.9809e-05,1.142e-05,0.0,0 STARLINK-5037,1 53896U 22119L   24155.21855013  .00001142  00000-0  89809-4 0  9994,2 53896  53.2181 337.1034 0001140  91.2365 268.8757 15.08841901 94391,6917.875,95.437,540.528,538.951,0.0
53896.0,STARLINK-5037,PAYLOAD,2024-06-03 21:08:33,15.08850211,0.0001079,53.2171,334.1287,87.1702,272.9414,0.00034681,5.237e-05,0.0,0 STARLINK-5037,1 53896U 22119L   24155.88094755  .00005237  00000-0  34681-3 0  9991,2 53896  53.2171 334.1287 0001079  87.1702 272.9414 15.08850211 94498,6917.849,95.437,540.461,538.968,0.0
53896.0,STARLINK-5037,PAYLOAD,2024-06-04 05:05:29,15.08845757,2.42e-05,53.2176,332.6416,97.1454,262.9566,0.00019228,2.774e-05,0.0,0 STARLINK-5037,1 53896U 22119L   24156.21214509  .00002774  00000-0  19228-3 0  9993,2 53896  53.2176 332.6416 0000242  97.1454 262.9566 15.08845757 94122,6917.863,95.437,539.895,539.56,0.0
53896.0,STARLINK-5037,PAYLOAD,2024-06-04 17:48:34,15.08842046,0.0001272,53.2095,330.2623,86.9738,273.1399,0.00017466,2.493e-05,0.0,0 STARLINK-5037,1 53896U 22119L   24156.74207084  .00002493  00000-0  17466-3 0  9991,2 53896  53.2095 330.2623 0001272  86.9738 273.1399 15.08842046 94206,6917.874,95.437,540.619,538.859,0.0
53896.0,STARLINK-5037,PAYLOAD,2024-06-05 11:17:49,15.08840241,0.000131,53.2129,326.9904,97.4794,262.6347,2.6041e-05,1.27e-06,0.0,0 STARLINK-5037,1 53896U 22119L   24157.47071103  .00000127  00000-0  26041-4 0  9995,2 53896  53.2129 326.9904 0001310  97.4794 262.6347 15.08840241 94739,6917.88,95.438,540.651,538.838,0.0
53896.0,STARLINK-5037,PAYLOAD,2024-06-05 17:39:21,15.08840083,0.0001174,53.2129,325.8007,100.7535,259.3589,4.9868e-05,5.06e-06,0.0,0 STARLINK-5037,1 53896U 22119L   24157.73567099  .00000506  00000-0  49868-4 0  9991,2 53896  53.2129 325.8007 0001174 100.7535 259.3589 15.08840083 94779,6917.88,95.438,540.557,538.933,0.0
53896.0,STARLINK-5037,PAYLOAD,2024-06-06 04:47:04,15.0883404,0.0001612,53.2128,323.7189,100.3449,259.7725,3.2411e-05,2.28e-06,0.0,0 STARLINK-5037,1 53896U 22119L   24158.19935780  .00000228  00000-0  32411-4 0  9995,2 53896  53.2128 323.7189 0001612 100.3449 259.7725 15.08834040 94427,6917.899,95.438,540.879,538.648,0.0
53896.0,STARLINK-5037,PAYLOAD,2024-06-06 17:30:09,15.08840916,0.0001188,53.2145,321.3425,82.9984,277.1143,0.00012905,1.767e-05,0.0,0 STARLINK-5037,1 53896U 22119L   24158.72927506  .00001767  00000-0  12905-3 0  9995,2 53896  53.2145 321.3425 0001188  82.9984 277.1143 15.08840916 94506,6917.878,95.437,540.564,538.921,0.0
